{
  "type": "FeatureCollection",
  "features": [
    {
      "type": "Feature",
      "properties": {
        "norad_id": 34976,
        "name": "COSMOS 2251 DEB",
        "group": "cosmos-2251-debris",
        "lat": 29.811552423690685,
        "lon": -68.63926591646047,
        "alt_km": 623.3885067619176,
        "timestamp": "2025-12-25T03:55:56.762993+00:00",
        "meta_object_name": "COSMOS 2251 DEB",
        "meta_object_id": "1993-036AFF",
        "meta_epoch": "2025-12-24T01:53:03.735744",
        "meta_mean_motion": 14.76803159,
        "meta_eccentricity": 0.00478172,
        "meta_inclination": 74.0579,
        "meta_ra_of_asc_node": 284.0577,
        "meta_arg_of_pericenter": 328.3095,
        "meta_mean_anomaly": 54.6089,
        "meta_ephemeris_type": 0,
        "meta_classification_type": "U",
        "meta_norad_cat_id": 34976,
        "meta_element_set_no": 999,
        "meta_rev_at_epoch": 88441,
        "meta_bstar": 0.0016053667,
        "meta_mean_motion_dot": 0.00011463,
        "meta_mean_motion_ddot": 0,
        "tle_line1": "1 34976U 93036AFF 25358.07851546  .00011463  00000+0  16054-2 0  9991",
        "tle_line2": "2 34976  74.0579 284.0577 0047817 328.3095  54.6089 14.76803159884414"
      },
      "geometry": {
        "type": "Point",
        "coordinates": [
          -68.63926591646047,
          29.811552423690685
        ]
      }
    },
    {
      "type": "Feature",
      "properties": {
        "norad_id": 34979,
        "name": "COSMOS 2251 DEB",
        "group": "cosmos-2251-debris",
        "lat": -21.29570795176239,
        "lon": 69.22304591381973,
        "alt_km": 650.7042944933319,
        "timestamp": "2025-12-25T03:55:56.763003+00:00",
        "meta_object_name": "COSMOS 2251 DEB",
        "meta_object_id": "1993-036AFJ",
        "meta_epoch": "2025-12-24T02:40:34.256640",
        "meta_mean_motion": 14.79539389,
        "meta_eccentricity": 0.0049197,
        "meta_inclination": 74.0387,
        "meta_ra_of_asc_node": 244.8878,
        "meta_arg_of_pericenter": 320.4952,
        "meta_mean_anomaly": 39.2641,
        "meta_ephemeris_type": 0,
        "meta_classification_type": "U",
        "meta_norad_cat_id": 34979,
        "meta_element_set_no": 999,
        "meta_rev_at_epoch": 88388,
        "meta_bstar": 0.0011011811,
        "meta_mean_motion_dot": 8.386e-05,
        "meta_mean_motion_ddot": 0,
        "tle_line1": "1 34979U 93036AFJ 25358.11150760  .00008386  00000+0  11012-2 0  9998",
        "tle_line2": "2 34979  74.0387 244.8878 0049197 320.4952  39.2641 14.79539389883887"
      },
      "geometry": {
        "type": "Point",
        "coordinates": [
          69.22304591381973,
          -21.29570795176239
        ]
      }
    },
    {
      "type": "Feature",
      "properties": {
        "norad_id": 34990,
        "name": "COSMOS 2251 DEB",
        "group": "cosmos-2251-debris",
        "lat": 74.03374750383851,
        "lon": -40.73459688767249,
        "alt_km": 754.3520283141024,
        "timestamp": "2025-12-25T03:55:56.763014+00:00",
        "meta_object_name": "COSMOS 2251 DEB",
        "meta_object_id": "1993-036AFN",
        "meta_epoch": "2025-12-15T10:28:28.781472",
        "meta_mean_motion": 14.42382837,
        "meta_eccentricity": 0.00165597,
        "meta_inclination": 74.0457,
        "meta_ra_of_asc_node": 246.3361,
        "meta_arg_of_pericenter": 308.9911,
        "meta_mean_anomaly": 50.977,
        "meta_ephemeris_type": 0,
        "meta_classification_type": "U",
        "meta_norad_cat_id": 34990,
        "meta_element_set_no": 999,
        "meta_rev_at_epoch": 87385,
        "meta_bstar": 0.00031884459,
        "meta_mean_motion_dot": 1.029e-05,
        "meta_mean_motion_ddot": 0,
        "tle_line1": "1 34990U 93036AFN 25349.43644423  .00001029  00000+0  31884-3 0  9997",
        "tle_line2": "2 34990  74.0457 246.3361 0016559 308.9911  50.9770 14.42382837873857"
      },
      "geometry": {
        "type": "Point",
        "coordinates": [
          -40.73459688767249,
          74.03374750383851
        ]
      }
    },
    {
      "type": "Feature",
      "properties": {
        "norad_id": 34997,
        "name": "COSMOS 2251 DEB",
        "group": "cosmos-2251-debris",
        "lat": 39.46401044343992,
        "lon": -58.421149113749735,
        "alt_km": 789.789584531034,
        "timestamp": "2025-12-25T03:55:56.763024+00:00",
        "meta_object_name": "COSMOS 2251 DEB",
        "meta_object_id": "1993-036AFV",
        "meta_epoch": "2025-12-22T02:39:53.440416",
        "meta_mean_motion": 14.45657457,
        "meta_eccentricity": 0.0097328,
        "meta_inclination": 73.8808,
        "meta_ra_of_asc_node": 293.5509,
        "meta_arg_of_pericenter": 267.0492,
        "meta_mean_anomaly": 91.9523,
        "meta_ephemeris_type": 0,
        "meta_classification_type": "U",
        "meta_norad_cat_id": 34997,
        "meta_element_set_no": 999,
        "meta_rev_at_epoch": 70882,
        "meta_bstar": 0.0015391452,
        "meta_mean_motion_dot": 5.746e-05,
        "meta_mean_motion_ddot": 0,
        "tle_line1": "1 34997U 93036AFV 25356.11103519  .00005746  00000+0  15391-2 0  9997",
        "tle_line2": "2 34997  73.8808 293.5509 0097328 267.0492  91.9523 14.45657457708822"
      },
      "geometry": {
        "type": "Point",
        "coordinates": [
          -58.421149113749735,
          39.46401044343992
        ]
      }
    },
    {
      "type": "Feature",
      "properties": {
        "norad_id": 34998,
        "name": "COSMOS 2251 DEB",
        "group": "cosmos-2251-debris",
        "lat": 72.98858845595737,
        "lon": -153.77046006917,
        "alt_km": 735.195749844891,
        "timestamp": "2025-12-25T03:55:56.763034+00:00",
        "meta_object_name": "COSMOS 2251 DEB",
        "meta_object_id": "1993-036AFW",
        "meta_epoch": "2025-12-24T19:57:21.845376",
        "meta_mean_motion": 14.49331635,
        "meta_eccentricity": 0.0021609,
        "meta_inclination": 74.0106,
        "meta_ra_of_asc_node": 137.2683,
        "meta_arg_of_pericenter": 281.3103,
        "meta_mean_anomaly": 229.4167,
        "meta_ephemeris_type": 0,
        "meta_classification_type": "U",
        "meta_norad_cat_id": 34998,
        "meta_element_set_no": 999,
        "meta_rev_at_epoch": 87595,
        "meta_bstar": 0.00064205,
        "meta_mean_motion_dot": 2.432e-05,
        "meta_mean_motion_ddot": 0,
        "tle_line1": "1 34998U 93036AFW 25358.83150284  .00002432  00000+0  64205-3 0  9998",
        "tle_line2": "2 34998  74.0106 137.2683 0021609 281.3103 229.4167 14.49331635875953"
      },
      "geometry": {
        "type": "Point",
        "coordinates": [
          -153.77046006917,
          72.98858845595737
        ]
      }
    },
    {
      "type": "Feature",
      "properties": {
        "norad_id": 35012,
        "name": "COSMOS 2251 DEB",
        "group": "cosmos-2251-debris",
        "lat": -64.88859650937283,
        "lon": -53.76162385909893,
        "alt_km": 694.1213436372955,
        "timestamp": "2025-12-25T03:55:56.763045+00:00",
        "meta_object_name": "COSMOS 2251 DEB",
        "meta_object_id": "1993-036AFZ",
        "meta_epoch": "2025-12-24T00:12:06.211008",
        "meta_mean_motion": 14.45562607,
        "meta_eccentricity": 0.0081433,
        "meta_inclination": 74.0209,
        "meta_ra_of_asc_node": 90.705,
        "meta_arg_of_pericenter": 228.4713,
        "meta_mean_anomaly": 130.9441,
        "meta_ephemeris_type": 0,
        "meta_classification_type": "U",
        "meta_norad_cat_id": 35012,
        "meta_element_set_no": 999,
        "meta_rev_at_epoch": 87724,
        "meta_bstar": 0.00017130932,
        "meta_mean_motion_dot": 6.01e-06,
        "meta_mean_motion_ddot": 0,
        "tle_line1": "1 35012U 93036AFZ 25358.00840522  .00000601  00000+0  17131-3 0  9998",
        "tle_line2": "2 35012  74.0209  90.7050 0081433 228.4713 130.9441 14.45562607877242"
      },
      "geometry": {
        "type": "Point",
        "coordinates": [
          -53.76162385909893,
          -64.88859650937283
        ]
      }
    },
    {
      "type": "Feature",
      "properties": {
        "norad_id": 35014,
        "name": "COSMOS 2251 DEB",
        "group": "cosmos-2251-debris",
        "lat": -61.3098916583749,
        "lon": -129.18269264068863,
        "alt_km": 647.5272616558414,
        "timestamp": "2025-12-25T03:55:56.763055+00:00",
        "meta_object_name": "COSMOS 2251 DEB",
        "meta_object_id": "1993-036AGB",
        "meta_epoch": "2025-12-22T09:43:37.618464",
        "meta_mean_motion": 14.75357031,
        "meta_eccentricity": 0.00066485,
        "meta_inclination": 73.9987,
        "meta_ra_of_asc_node": 24.596,
        "meta_arg_of_pericenter": 203.6446,
        "meta_mean_anomaly": 156.4423,
        "meta_ephemeris_type": 0,
        "meta_classification_type": "U",
        "meta_norad_cat_id": 35014,
        "meta_element_set_no": 999,
        "meta_rev_at_epoch": 71479,
        "meta_bstar": 0.0015862083,
        "meta_mean_motion_dot": 0.00010749,
        "meta_mean_motion_ddot": 0,
        "tle_line1": "1 35014U 93036AGB 25356.40529651  .00010749  00000+0  15862-2 0  9991",
        "tle_line2": "2 35014  73.9987  24.5960 0006648 203.6446 156.4423 14.75357031714792"
      },
      "geometry": {
        "type": "Point",
        "coordinates": [
          -129.18269264068863,
          -61.3098916583749
        ]
      }
    }
  ]
}